{
  "type": "FeatureCollection",
  "name": "teluk-awur-jepara-provisional-strip",
  "features": [
    {
      "type": "Feature",
      "properties": {
        "site_id": "teluk-awur-jepara",
        "site_name": "Teluk Awur, Jepara",
        "candidate_role": "technical_benchmark",
        "boundary_status": "provisional_derived",
        "boundary_reason": "A compact coastal strip around Teluk Awur and adjacent nearshore waters, selected to overlap the general setting of published Sentinel-2 TSS work without claiming the paper's exact sampling boundary.",
        "coastline_reference": [
          [110.642, -6.545],
          [110.615, -6.690]
        ],
        "offshore_width_km_target": "2-5",
        "warning": "Provisional benchmark AOI. Published station coordinates or a study polygon must be obtained before validation."
      },
      "geometry": {
        "type": "Polygon",
        "coordinates": [
          [
            [110.625, -6.535],
            [110.596, -6.700],
            [110.633, -6.706],
            [110.662, -6.541],
            [110.625, -6.535]
          ]
        ]
      }
    }
  ]
}
